{"fetched_at":"2026-07-10T18:08:30.667Z","source":"https://celestrak.org/NORAD/elements/gp.php?NAME=SENTINEL&FORMAT=JSON","constellation":"sentinel-3","records":[{"OBJECT_NAME":"SENTINEL-3A","OBJECT_ID":"2016-011A","EPOCH":"2026-07-10T06:56:34.986048","CLASSIFICATION_TYPE":"U","MEAN_MOTION":14.26738918,"ECCENTRICITY":0.00013965,"INCLINATION":98.6239,"RA_OF_ASC_NODE":258.34,"ARG_OF_PERICENTER":91.6068,"MEAN_ANOMALY":268.5272,"EPHEMERIS_TYPE":0,"NORAD_CAT_ID":41335,"ELEMENT_SET_NO":999,"REV_AT_EPOCH":54135,"BSTAR":0.000036237667,"MEAN_MOTION_DOT":4.4e-7,"MEAN_MOTION_DDOT":0},{"OBJECT_NAME":"SENTINEL-3B","OBJECT_ID":"2018-039A","EPOCH":"2026-07-09T10:06:02.564928","CLASSIFICATION_TYPE":"U","MEAN_MOTION":14.26741005,"ECCENTRICITY":0.00010167,"INCLINATION":98.6239,"RA_OF_ASC_NODE":257.6331,"ARG_OF_PERICENTER":120.0757,"MEAN_ANOMALY":240.0524,"EPHEMERIS_TYPE":0,"NORAD_CAT_ID":43437,"ELEMENT_SET_NO":999,"REV_AT_EPOCH":42729,"BSTAR":0.000040006667,"MEAN_MOTION_DOT":5.3e-7,"MEAN_MOTION_DDOT":0}]}
