SENTINEL-3A             
1 41335U 16011A   26191.28929382  .00000044  00000+0  36238-4 0  9990
2 41335  98.6239 258.3400 0001396  91.6068 268.5272 14.26738918541355
SENTINEL-3B             
1 43437U 18039A   26190.42086302  .00000053  00000+0  40007-4 0  9997
2 43437  98.6239 257.6331 0001016 120.0757 240.0524 14.26741005427298
